{"type": "FeatureCollection", "features": [{"type": "Feature", "properties": {"id": "bagbazar", "name": "Bagbazar Sarbojanin", "name_bn": "বাগবাজার সার্বজনীন", "zone": "north", "geo_source": "osm", "tags": ["traditional", "heritage", "fair"], "popularity": 5, "crowd_base": 4, "best_slot": "morning", "visit_min": 25, "est_year": 1918, "highlight": "One of the oldest sarbojanin pujas. Traditional daker saaj idol, plus a riverside fair.", "verified": false, "nearest_metro": {"id": "shyambazar", "name": "Shyambazar", "line": "blue", "distance_m": 753, "walk_min": 18}, "parking": [{"id": "hatibagan_paypark", "distance_m": 1228, "walk_min": 30}], "food": [{"id": "chittaranjan", "distance_m": 759, "walk_min": 19}], "quiet_hours": {"mahalaya": [5, 6], "panchami": [5, 6], "shashthi": [5, 6], "saptami": [5, 6], "ashtami": [5, 6], "navami": [5, 6], "dashami": [5, 6]}, "peak_crowd": 88, "checkin_radius_m": 250, "best_slot_label": "9 am–12 pm", "kind": "pandals"}, "geometry": {"type": "Point", "coordinates": [88.366135, 22.604699]}}, {"type": "Feature", "properties": {"id": "kumartuli_park", "name": "Kumartuli Park Sarbojanin", "name_bn": "কুমোরটুলি পার্ক সার্বজনীন", "zone": "north", "geo_source": "curated", "tags": ["theme", "art"], "popularity": 5, "crowd_base": 5, "best_slot": "early_morning", "visit_min": 25, "est_year": null, "highlight": "Next door to the idol-makers' quarter. Expect bold, artistic themes every year.", "verified": false, "nearest_metro": {"id": "sovabazar", "name": "Sovabazar Sutanuti", "line": "blue", "distance_m": 692, "walk_min": 17}, "parking": [{"id": "hatibagan_paypark", "distance_m": 1400, "walk_min": 34}], "food": [{"id": "allens_kitchen", "distance_m": 860, "walk_min": 21}, {"id": "mitra_cafe", "distance_m": 863, "walk_min": 21}], "quiet_hours": {"mahalaya": [5, 6], "panchami": [5, 6], "shashthi": [5, 6], "saptami": [5, 6], "ashtami": [5, 6], "navami": [5, 6], "dashami": [5, 6]}, "peak_crowd": 100, "checkin_radius_m": 350, "best_slot_label": "5–9 am", "kind": "pandals"}, "geometry": {"type": "Point", "coordinates": [88.3608, 22.6006]}}, {"type": "Feature", "properties": {"id": "kumartuli_sarbojanin", "name": "Kumartuli Sarbojanin", "name_bn": "কুমোরটুলি সার্বজনীন", "zone": "north", "geo_source": "curated", "tags": ["traditional", "artisan"], "popularity": 4, "crowd_base": 3, "best_slot": "morning", "visit_min": 15, "est_year": null, "highlight": "Worshipped where the idols are born. Walk the artisan lanes on the way.", "verified": false, "nearest_metro": {"id": "sovabazar", "name": "Sovabazar Sutanuti", "line": "blue", "distance_m": 531, "walk_min": 13}, "parking": [{"id": "hatibagan_paypark", "distance_m": 1269, "walk_min": 31}], "food": [{"id": "allens_kitchen", "distance_m": 699, "walk_min": 17}, {"id": "mitra_cafe", "distance_m": 701, "walk_min": 17}, {"id": "girish_nakur", "distance_m": 777, "walk_min": 19}], "quiet_hours": {"mahalaya": [5, 6], "panchami": [5, 6], "shashthi": [5, 6], "saptami": [5, 6], "ashtami": [5, 6], "navami": [5, 6], "dashami": [5, 6]}, "peak_crowd": 66, "checkin_radius_m": 350, "best_slot_label": "9 am–12 pm", "kind": "pandals"}, "geometry": {"type": "Point", "coordinates": [88.3617, 22.5994]}}, {"type": "Feature", "properties": {"id": "ahiritola", "name": "Ahiritola Sarbojanin", "name_bn": "আহিরীটোলা সার্বজনীন", "zone": "north", "geo_source": "osm", "tags": ["theme"], "popularity": 4, "crowd_base": 4, "best_slot": "afternoon", "visit_min": 20, "est_year": null, "highlight": "A riverside neighbourhood puja known for large-scale theme work.", "verified": false, "nearest_metro": {"id": "sovabazar", "name": "Sovabazar Sutanuti", "line": "blue", "distance_m": 830, "walk_min": 20}, "parking": [{"id": "hatibagan_paypark", "distance_m": 1679, "walk_min": 41}], "food": [{"id": "girish_nakur", "distance_m": 754, "walk_min": 18}, {"id": "allens_kitchen", "distance_m": 789, "walk_min": 19}], "quiet_hours": {"mahalaya": [5, 6], "panchami": [5, 6], "shashthi": [5, 6], "saptami": [5, 6], "ashtami": [5, 6], "navami": [5, 6], "dashami": [5, 6]}, "peak_crowd": 88, "checkin_radius_m": 250, "best_slot_label": "12–5 pm", "kind": "pandals"}, "geometry": {"type": "Point", "coordinates": [88.357193, 22.594838]}}, {"type": "Feature", "properties": {"id": "ahiritola_jubak", "name": "Ahiritola Jubak Brinda", "name_bn": "আহিরীটোলা যুবকবৃন্দ", "zone": "north", "geo_source": "curated", "tags": ["theme"], "popularity": 3, "crowd_base": 3, "best_slot": "afternoon", "visit_min": 15, "est_year": null, "highlight": "A short hop from Ahiritola Sarbojanin, with inventive craft themes.", "verified": false, "nearest_metro": {"id": "sovabazar", "name": "Sovabazar Sutanuti", "line": "blue", "distance_m": 537, "walk_min": 13}, "parking": [{"id": "hatibagan_paypark", "distance_m": 1387, "walk_min": 34}], "food": [{"id": "allens_kitchen", "distance_m": 571, "walk_min": 14}, {"id": "girish_nakur", "distance_m": 588, "walk_min": 14}, {"id": "mitra_cafe", "distance_m": 651, "walk_min": 16}], "quiet_hours": {"mahalaya": [5, 6], "panchami": [5, 6], "shashthi": [5, 6], "saptami": [5, 6], "ashtami": [5, 6], "navami": [5, 6], "dashami": [5, 6]}, "peak_crowd": 66, "checkin_radius_m": 350, "best_slot_label": "12–5 pm", "kind": "pandals"}, "geometry": {"type": "Point", "coordinates": [88.36, 22.5964]}}, {"type": "Feature", "properties": {"id": "sovabazar_rajbari", "name": "Sovabazar Rajbari", "name_bn": "শোভাবাজার রাজবাড়ি", "zone": "north", "geo_source": "osm", "tags": ["heritage", "bonedi"], "popularity": 5, "crowd_base": 4, "best_slot": "afternoon", "visit_min": 30, "est_year": 1757, "highlight": "A bonedi bari puja started by Raja Nabakrishna Deb. The thakurdalan is stunning.", "verified": false, "nearest_metro": {"id": "sovabazar", "name": "Sovabazar Sutanuti", "line": "blue", "distance_m": 230, "walk_min": 6}, "parking": [{"id": "hatibagan_paypark", "distance_m": 654, "walk_min": 16}], "food": [{"id": "mitra_cafe", "distance_m": 286, "walk_min": 7}, {"id": "allens_kitchen", "distance_m": 417, "walk_min": 10}, {"id": "girish_nakur", "distance_m": 543, "walk_min": 13}, {"id": "chittaranjan", "distance_m": 581, "walk_min": 14}], "quiet_hours": {"mahalaya": [5, 6], "panchami": [5, 6], "shashthi": [5, 6], "saptami": [5, 6], "ashtami": [5, 6], "navami": [5, 6], "dashami": [5, 6]}, "peak_crowd": 88, "checkin_radius_m": 250, "best_slot_label": "12–5 pm", "kind": "pandals"}, "geometry": {"type": "Point", "coordinates": [88.367193, 22.596826]}}, {"type": "Feature", "properties": {"id": "kashi_bose_lane", "name": "Kashi Bose Lane", "name_bn": "কাশী বোস লেন", "zone": "north", "geo_source": "osm", "tags": ["theme", "art"], "popularity": 4, "crowd_base": 4, "best_slot": "evening", "visit_min": 20, "est_year": null, "highlight": "A lane-side puja that keeps winning art awards.", "verified": false, "nearest_metro": {"id": "sovabazar", "name": "Sovabazar Sutanuti", "line": "blue", "distance_m": 666, "walk_min": 16}, "parking": [{"id": "hatibagan_paypark", "distance_m": 725, "walk_min": 18}], "food": [{"id": "mitra_cafe", "distance_m": 494, "walk_min": 12}, {"id": "girish_nakur", "distance_m": 528, "walk_min": 13}, {"id": "allens_kitchen", "distance_m": 529, "walk_min": 13}], "quiet_hours": {"mahalaya": [5, 6], "panchami": [5, 6], "shashthi": [5, 6], "saptami": [5, 6], "ashtami": [5, 6], "navami": [5, 6], "dashami": [5, 6]}, "peak_crowd": 88, "checkin_radius_m": 250, "best_slot_label": "5–9 pm", "kind": "pandals"}, "geometry": {"type": "Point", "coordinates": [88.368965, 22.591006]}}, {"type": "Feature", "properties": {"id": "nalin_sarkar", "name": "Nalin Sarkar Street", "name_bn": "নলিন সরকার স্ট্রিট", "zone": "north", "geo_source": "osm", "tags": ["theme"], "popularity": 4, "crowd_base": 4, "best_slot": "evening", "visit_min": 20, "est_year": null, "highlight": "A famous Hatibagan theme puja tucked into a narrow lane.", "verified": false, "nearest_metro": {"id": "shyambazar", "name": "Shyambazar", "line": "blue", "distance_m": 672, "walk_min": 16}, "parking": [{"id": "hatibagan_paypark", "distance_m": 74, "walk_min": 2}], "food": [{"id": "golbari", "distance_m": 554, "walk_min": 14}, {"id": "chittaranjan", "distance_m": 560, "walk_min": 14}, {"id": "mitra_cafe", "distance_m": 765, "walk_min": 19}], "quiet_hours": {"mahalaya": [5, 6], "panchami": [5, 6], "shashthi": [5, 6], "saptami": [5, 6], "ashtami": [5, 6], "navami": [5, 6], "dashami": [5, 6]}, "peak_crowd": 88, "checkin_radius_m": 250, "best_slot_label": "5–9 pm", "kind": "pandals"}, "geometry": {"type": "Point", "coordinates": [88.373396, 22.595346]}}, {"type": "Feature", "properties": {"id": "hatibagan", "name": "Hatibagan Sarbojanin", "name_bn": "হাতিবাগান সার্বজনীন", "zone": "north", "geo_source": "curated", "tags": ["theme", "traditional"], "popularity": 4, "crowd_base": 4, "best_slot": "evening", "visit_min": 20, "est_year": null, "highlight": "Right at the Hatibagan crossing. Easy to combine with street shopping.", "verified": false, "nearest_metro": {"id": "shyambazar", "name": "Shyambazar", "line": "blue", "distance_m": 758, "walk_min": 18}, "parking": [{"id": "hatibagan_paypark", "distance_m": 161, "walk_min": 4}], "food": [{"id": "golbari", "distance_m": 639, "walk_min": 16}, {"id": "chittaranjan", "distance_m": 657, "walk_min": 16}], "quiet_hours": {"mahalaya": [5, 6], "panchami": [5, 6], "shashthi": [5, 6], "saptami": [5, 6], "ashtami": [5, 6], "navami": [5, 6], "dashami": [5, 6]}, "peak_crowd": 88, "checkin_radius_m": 350, "best_slot_label": "5–9 pm", "kind": "pandals"}, "geometry": {"type": "Point", "coordinates": [88.3742, 22.5947]}}, {"type": "Feature", "properties": {"id": "hatibagan_nabinpally", "name": "Hatibagan Nabin Pally", "name_bn": "হাতিবাগান নবীনপল্লী", "zone": "north", "geo_source": "curated", "tags": ["theme"], "popularity": 3, "crowd_base": 3, "best_slot": "evening", "visit_min": 15, "est_year": null, "highlight": "A smaller theme puja a few minutes from the Hatibagan crossing.", "verified": false, "nearest_metro": {"id": "shyambazar", "name": "Shyambazar", "line": "blue", "distance_m": 1010, "walk_min": 25}, "parking": [{"id": "hatibagan_paypark", "distance_m": 416, "walk_min": 10}], "food": [{"id": "golbari", "distance_m": 891, "walk_min": 22}, {"id": "chittaranjan", "distance_m": 912, "walk_min": 22}], "quiet_hours": {"mahalaya": [5, 6], "panchami": [5, 6], "shashthi": [5, 6], "saptami": [5, 6], "ashtami": [5, 6], "navami": [5, 6], "dashami": [5, 6]}, "peak_crowd": 66, "checkin_radius_m": 350, "best_slot_label": "5–9 pm", "kind": "pandals"}, "geometry": {"type": "Point", "coordinates": [88.3752, 22.5926]}}, {"type": "Feature", "properties": {"id": "jagat_mukherjee", "name": "Jagat Mukherjee Park", "name_bn": "জগৎ মুখার্জি পার্ক", "zone": "north", "geo_source": "osm", "tags": ["theme"], "popularity": 4, "crowd_base": 4, "best_slot": "evening", "visit_min": 20, "est_year": null, "highlight": "Park-based theme puja near Shyambazar.", "verified": false, "nearest_metro": {"id": "shyambazar", "name": "Shyambazar", "line": "blue", "distance_m": 601, "walk_min": 15}, "parking": [{"id": "hatibagan_paypark", "distance_m": 919, "walk_min": 22}], "food": [{"id": "chittaranjan", "distance_m": 526, "walk_min": 13}, {"id": "golbari", "distance_m": 642, "walk_min": 16}, {"id": "mitra_cafe", "distance_m": 760, "walk_min": 19}], "quiet_hours": {"mahalaya": [5, 6], "panchami": [5, 6], "shashthi": [5, 6], "saptami": [5, 6], "ashtami": [5, 6], "navami": [5, 6], "dashami": [5, 6]}, "peak_crowd": 88, "checkin_radius_m": 250, "best_slot_label": "5–9 pm", "kind": "pandals"}, "geometry": {"type": "Point", "coordinates": [88.366647, 22.601311]}}, {"type": "Feature", "properties": {"id": "tala_prattoy", "name": "Tala Prattoy", "name_bn": "টালা প্রত্যয়", "zone": "north", "geo_source": "osm", "tags": ["theme", "blockbuster"], "popularity": 5, "crowd_base": 5, "best_slot": "early_morning", "visit_min": 30, "est_year": null, "highlight": "North Kolkata's blockbuster theme puja. The queue moves fast at dawn.", "verified": false, "nearest_metro": {"id": "belgachia", "name": "Belgachia", "line": "blue", "distance_m": 539, "walk_min": 13}, "parking": [{"id": "dumdum_metro", "distance_m": 1689, "walk_min": 41}, {"id": "hatibagan_paypark", "distance_m": 1695, "walk_min": 41}], "food": [{"id": "golbari", "distance_m": 1365, "walk_min": 33}, {"id": "chittaranjan", "distance_m": 1470, "walk_min": 36}], "quiet_hours": {"mahalaya": [5, 6], "panchami": [5, 6], "shashthi": [5, 6], "saptami": [5, 6], "ashtami": [5, 6], "navami": [5, 6], "dashami": [5, 6]}, "peak_crowd": 100, "checkin_radius_m": 250, "best_slot_label": "5–9 am", "kind": "pandals"}, "geometry": {"type": "Point", "coordinates": [88.382266, 22.608923]}}, {"type": "Feature", "properties": {"id": "md_ali_park", "name": "Mohammad Ali Park", "name_bn": "মহম্মদ আলি পার্ক", "zone": "central", "geo_source": "osm", "tags": ["theme", "blockbuster"], "popularity": 5, "crowd_base": 5, "best_slot": "early_morning", "visit_min": 30, "est_year": 1969, "highlight": "A Central Avenue giant known for lavish replicas and theme pandals.", "verified": false, "nearest_metro": {"id": "mg_road", "name": "Mahatma Gandhi Road", "line": "blue", "distance_m": 414, "walk_min": 10}, "parking": [{"id": "sealdah_station", "distance_m": 1500, "walk_min": 37}], "food": [{"id": "coffee_house", "distance_m": 348, "walk_min": 8}, {"id": "putiram", "distance_m": 371, "walk_min": 9}, {"id": "paramount", "distance_m": 434, "walk_min": 11}, {"id": "royal_indian", "distance_m": 575, "walk_min": 14}], "quiet_hours": {"mahalaya": [5, 6], "panchami": [5, 6], "shashthi": [5, 6], "saptami": [5, 6], "ashtami": [5, 6], "navami": [5, 6], "dashami": [5, 6]}, "peak_crowd": 100, "checkin_radius_m": 250, "best_slot_label": "5–9 am", "kind": "pandals"}, "geometry": {"type": "Point", "coordinates": [88.360737, 22.57724]}}, {"type": "Feature", "properties": {"id": "chaltabagan", "name": "Chaltabagan Lohapatty", "name_bn": "চালতাবাগান লোহাপট্টি", "zone": "central", "geo_source": "curated", "tags": ["theme", "art"], "popularity": 4, "crowd_base": 4, "best_slot": "evening", "visit_min": 20, "est_year": null, "highlight": "Theme puja off Bidhan Sarani that regularly picks up awards.", "verified": false, "nearest_metro": {"id": "girish_park", "name": "Girish Park", "line": "blue", "distance_m": 525, "walk_min": 13}, "parking": [{"id": "hatibagan_paypark", "distance_m": 1345, "walk_min": 33}], "food": [{"id": "girish_nakur", "distance_m": 914, "walk_min": 22}, {"id": "allens_kitchen", "distance_m": 999, "walk_min": 24}], "quiet_hours": {"mahalaya": [5, 6], "panchami": [5, 6], "shashthi": [5, 6], "saptami": [5, 6], "ashtami": [5, 6], "navami": [5, 6], "dashami": [5, 6]}, "peak_crowd": 88, "checkin_radius_m": 350, "best_slot_label": "5–9 pm", "kind": "pandals"}, "geometry": {"type": "Point", "coordinates": [88.3676, 22.5852]}}, {"type": "Feature", "properties": {"id": "simla_byayam", "name": "Simla Byayam Samity", "name_bn": "সিমলা ব্যায়াম সমিতি", "zone": "central", "geo_source": "curated", "tags": ["traditional", "heritage"], "popularity": 3, "crowd_base": 3, "best_slot": "morning", "visit_min": 15, "est_year": 1926, "highlight": "Historic puja in Swami Vivekananda's neighbourhood.", "verified": false, "nearest_metro": {"id": "girish_park", "name": "Girish Park", "line": "blue", "distance_m": 362, "walk_min": 9}, "parking": [{"id": "hatibagan_paypark", "distance_m": 1167, "walk_min": 28}], "food": [{"id": "girish_nakur", "distance_m": 600, "walk_min": 15}, {"id": "allens_kitchen", "distance_m": 687, "walk_min": 17}, {"id": "mitra_cafe", "distance_m": 746, "walk_min": 18}], "quiet_hours": {"mahalaya": [5, 6], "panchami": [5, 6], "shashthi": [5, 6], "saptami": [5, 6], "ashtami": [5, 6], "navami": [5, 6], "dashami": [5, 6]}, "peak_crowd": 66, "checkin_radius_m": 350, "best_slot_label": "9 am–12 pm", "kind": "pandals"}, "geometry": {"type": "Point", "coordinates": [88.3664, 22.5878]}}, {"type": "Feature", "properties": {"id": "college_square", "name": "College Square Sarbojanin", "name_bn": "কলেজ স্কোয়ার সার্বজনীন", "zone": "central", "geo_source": "osm", "tags": ["lights", "traditional", "lake"], "popularity": 5, "crowd_base": 5, "best_slot": "night", "visit_min": 25, "est_year": 1948, "highlight": "The lighting reflected on the College Square pond is iconic at night.", "verified": false, "nearest_metro": {"id": "central", "name": "Central", "line": "blue", "distance_m": 630, "walk_min": 15}, "parking": [{"id": "sealdah_station", "distance_m": 1023, "walk_min": 25}], "food": [{"id": "paramount", "distance_m": 86, "walk_min": 2}, {"id": "putiram", "distance_m": 171, "walk_min": 4}, {"id": "coffee_house", "distance_m": 184, "walk_min": 4}], "quiet_hours": {"mahalaya": [5, 6], "panchami": [5, 6], "shashthi": [5, 6], "saptami": [5, 6], "ashtami": [5, 6], "navami": [5, 6], "dashami": [5, 6]}, "peak_crowd": 100, "checkin_radius_m": 250, "best_slot_label": "9 pm–1 am", "kind": "pandals"}, "geometry": {"type": "Point", "coordinates": [88.364464, 22.574525]}}, {"type": "Feature", "properties": {"id": "santosh_mitra", "name": "Santosh Mitra Square (Lebutala)", "name_bn": "সন্তোষ মিত্র স্কোয়ার (লেবুতলা)", "zone": "central", "geo_source": "osm", "tags": ["theme", "blockbuster", "replica"], "popularity": 5, "crowd_base": 5, "best_slot": "early_morning", "visit_min": 30, "est_year": 1936, "highlight": "Known for giant replica pandals (it once built a gold idol and a chariot), so the queues get long.", "verified": false, "nearest_metro": {"id": "sealdah", "name": "Sealdah", "line": "green", "distance_m": 618, "walk_min": 15}, "parking": [{"id": "sealdah_station", "distance_m": 531, "walk_min": 13}, {"id": "new_market_mlcp", "distance_m": 1591, "walk_min": 39}], "food": [{"id": "bhim_nag", "distance_m": 569, "walk_min": 14}], "quiet_hours": {"mahalaya": [5, 6], "panchami": [5, 6], "shashthi": [5, 6], "saptami": [5, 6], "ashtami": [5, 6], "navami": [5, 6], "dashami": [5, 6]}, "peak_crowd": 100, "checkin_radius_m": 250, "best_slot_label": "5–9 am", "kind": "pandals"}, "geometry": {"type": "Point", "coordinates": [88.365539, 22.565863]}}, {"type": "Feature", "properties": {"id": "sealdah_rac", "name": "Sealdah Railway Athletic Club", "name_bn": "শিয়ালদহ রেলওয়ে অ্যাথলেটিক ক্লাব", "zone": "central", "geo_source": "curated", "tags": ["theme"], "popularity": 4, "crowd_base": 4, "best_slot": "evening", "visit_min": 20, "est_year": null, "highlight": "Right next to Sealdah station. Easy to add to the Santosh Mitra visit.", "verified": false, "nearest_metro": {"id": "sealdah", "name": "Sealdah", "line": "green", "distance_m": 396, "walk_min": 10}, "parking": [{"id": "sealdah_station", "distance_m": 337, "walk_min": 8}], "food": [{"id": "bhim_nag", "distance_m": 1243, "walk_min": 30}, {"id": "paramount", "distance_m": 1432, "walk_min": 35}], "quiet_hours": {"mahalaya": [5, 6], "panchami": [5, 6], "shashthi": [5, 6], "saptami": [5, 6], "ashtami": [5, 6], "navami": [5, 6], "dashami": [5, 6]}, "peak_crowd": 88, "checkin_radius_m": 350, "best_slot_label": "5–9 pm", "kind": "pandals"}, "geometry": {"type": "Point", "coordinates": [88.372, 22.5645]}}, {"type": "Feature", "properties": {"id": "ekdalia", "name": "Ekdalia Evergreen", "name_bn": "একডালিয়া এভারগ্রিন", "zone": "south_gariahat", "geo_source": "osm", "tags": ["traditional", "grand"], "popularity": 5, "crowd_base": 5, "best_slot": "early_morning", "visit_min": 25, "est_year": 1943, "highlight": "A huge traditional idol in a temple-replica pandal. A South Kolkata staple.", "verified": false, "nearest_metro": {"id": "ballygunge_rail", "name": "Ballygunge Junction (Suburban)", "line": "suburban", "distance_m": 654, "walk_min": 16}, "parking": [{"id": "lake_mall", "distance_m": 1835, "walk_min": 45}, {"id": "quest_mall", "distance_m": 1977, "walk_min": 48}], "food": [{"id": "gariahat_stalls", "distance_m": 311, "walk_min": 8}, {"id": "bhojohori_manna", "distance_m": 659, "walk_min": 16}, {"id": "vivekananda_park_phuchka", "distance_m": 741, "walk_min": 18}, {"id": "ballygunge_place", "distance_m": 778, "walk_min": 19}], "quiet_hours": {"mahalaya": [5, 6], "panchami": [5, 6], "shashthi": [5, 6], "saptami": [5, 6], "ashtami": [5, 6], "navami": [5, 6], "dashami": [5, 6]}, "peak_crowd": 100, "checkin_radius_m": 250, "best_slot_label": "5–9 am", "kind": "pandals"}, "geometry": {"type": "Point", "coordinates": [88.36596, 22.521253]}}, {"type": "Feature", "properties": {"id": "singhi_park", "name": "Singhi Park", "name_bn": "সিংহী পার্ক", "zone": "south_gariahat", "geo_source": "osm", "tags": ["traditional", "lights"], "popularity": 5, "crowd_base": 5, "best_slot": "morning", "visit_min": 20, "est_year": null, "highlight": "Grand traditional puja just off Gariahat Road.", "verified": false, "nearest_metro": {"id": "ballygunge_rail", "name": "Ballygunge Junction (Suburban)", "line": "suburban", "distance_m": 945, "walk_min": 23}, "parking": [{"id": "lake_mall", "distance_m": 1546, "walk_min": 38}, {"id": "quest_mall", "distance_m": 1998, "walk_min": 49}], "food": [{"id": "vivekananda_park_phuchka", "distance_m": 454, "walk_min": 11}, {"id": "gariahat_stalls", "distance_m": 469, "walk_min": 11}], "quiet_hours": {"mahalaya": [5, 6], "panchami": [5, 6], "shashthi": [5, 6], "saptami": [5, 6], "ashtami": [5, 6], "navami": [5, 6], "dashami": [5, 6]}, "peak_crowd": 100, "checkin_radius_m": 250, "best_slot_label": "9 am–12 pm", "kind": "pandals"}, "geometry": {"type": "Point", "coordinates": [88.363011, 22.521224]}}, {"type": "Feature", "properties": {"id": "ballygunge_cultural", "name": "Ballygunge Cultural Association", "name_bn": "বালিগঞ্জ কালচারাল অ্যাসোসিয়েশন", "zone": "south_lakemarket", "geo_source": "osm", "tags": ["theme", "art"], "popularity": 4, "crowd_base": 4, "best_slot": "afternoon", "visit_min": 20, "est_year": null, "highlight": "Thoughtful art-led themes in a calm-ish setting.", "verified": false, "nearest_metro": {"id": "kalighat", "name": "Kalighat", "line": "blue", "distance_m": 1030, "walk_min": 25}, "parking": [{"id": "lake_mall", "distance_m": 719, "walk_min": 18}, {"id": "south_city", "distance_m": 1701, "walk_min": 41}], "food": [{"id": "lake_market_stalls", "distance_m": 451, "walk_min": 11}, {"id": "vivekananda_park_phuchka", "distance_m": 518, "walk_min": 13}], "quiet_hours": {"mahalaya": [5, 6], "panchami": [5, 6], "shashthi": [5, 6], "saptami": [5, 6], "ashtami": [5, 6], "navami": [5, 6], "dashami": [5, 6]}, "peak_crowd": 88, "checkin_radius_m": 250, "best_slot_label": "12–5 pm", "kind": "pandals"}, "geometry": {"type": "Point", "coordinates": [88.355817, 22.515884]}}, {"type": "Feature", "properties": {"id": "hindustan_park", "name": "Hindustan Park Sarbojanin", "name_bn": "হিন্দুস্থান পার্ক সার্বজনীন", "zone": "south_gariahat", "geo_source": "curated", "tags": ["art", "theme"], "popularity": 4, "crowd_base": 3, "best_slot": "afternoon", "visit_min": 15, "est_year": null, "highlight": "An art-college aesthetic, with fewer crowds than its neighbours.", "verified": false, "nearest_metro": {"id": "ballygunge_rail", "name": "Ballygunge Junction (Suburban)", "line": "suburban", "distance_m": 1244, "walk_min": 30}, "parking": [{"id": "lake_mall", "distance_m": 1212, "walk_min": 30}, {"id": "south_city", "distance_m": 1552, "walk_min": 38}], "food": [{"id": "vivekananda_park_phuchka", "distance_m": 474, "walk_min": 12}, {"id": "gariahat_stalls", "distance_m": 692, "walk_min": 17}], "quiet_hours": {"mahalaya": [5, 6], "panchami": [5, 6], "shashthi": [5, 6], "saptami": [5, 6], "ashtami": [5, 6], "navami": [5, 6], "dashami": [5, 6]}, "peak_crowd": 66, "checkin_radius_m": 350, "best_slot_label": "12–5 pm", "kind": "pandals"}, "geometry": {"type": "Point", "coordinates": [88.3606, 22.5155]}}, {"type": "Feature", "properties": {"id": "jodhpur_park", "name": "Jodhpur Park", "name_bn": "যোধপুর পার্ক", "zone": "south_gariahat", "geo_source": "curated", "tags": ["theme", "grand"], "popularity": 4, "crowd_base": 4, "best_slot": "evening", "visit_min": 20, "est_year": null, "highlight": "Big theme pandal in a residential para.", "verified": false, "nearest_metro": {"id": "ballygunge_rail", "name": "Ballygunge Junction (Suburban)", "line": "suburban", "distance_m": 1309, "walk_min": 32}, "parking": [{"id": "south_city", "distance_m": 942, "walk_min": 23}], "food": [{"id": "bhojohori_manna", "distance_m": 980, "walk_min": 24}, {"id": "gariahat_stalls", "distance_m": 1113, "walk_min": 27}], "quiet_hours": {"mahalaya": [5, 6], "panchami": [5, 6], "shashthi": [5, 6], "saptami": [5, 6], "ashtami": [5, 6], "navami": [5, 6], "dashami": [5, 6]}, "peak_crowd": 88, "checkin_radius_m": 350, "best_slot_label": "5–9 pm", "kind": "pandals"}, "geometry": {"type": "Point", "coordinates": [88.367, 22.5085]}}, {"type": "Feature", "properties": {"id": "babubagan", "name": "Babubagan Sarbojanin", "name_bn": "বাবুবাগান সার্বজনীন", "zone": "south_gariahat", "geo_source": "curated", "tags": ["traditional"], "popularity": 3, "crowd_base": 3, "best_slot": "afternoon", "visit_min": 15, "est_year": null, "highlight": "Neighbourhood puja between Dhakuria and Selimpur.", "verified": false, "nearest_metro": {"id": "ballygunge_rail", "name": "Ballygunge Junction (Suburban)", "line": "suburban", "distance_m": 1192, "walk_min": 29}, "parking": [{"id": "south_city", "distance_m": 1438, "walk_min": 35}], "food": [{"id": "bhojohori_manna", "distance_m": 959, "walk_min": 23}, {"id": "gariahat_stalls", "distance_m": 1300, "walk_min": 32}], "quiet_hours": {"mahalaya": [5, 6], "panchami": [5, 6], "shashthi": [5, 6], "saptami": [5, 6], "ashtami": [5, 6], "navami": [5, 6], "dashami": [5, 6]}, "peak_crowd": 66, "checkin_radius_m": 350, "best_slot_label": "12–5 pm", "kind": "pandals"}, "geometry": {"type": "Point", "coordinates": [88.3734, 22.5087]}}, {"type": "Feature", "properties": {"id": "bosepukur_sitala", "name": "Bosepukur Sitala Mandir", "name_bn": "বোসপুকুর শীতলা মন্দির", "zone": "south_gariahat", "geo_source": "osm", "tags": ["theme", "art"], "popularity": 4, "crowd_base": 4, "best_slot": "evening", "visit_min": 20, "est_year": null, "highlight": "Famous for intricate material-based pandals.", "verified": false, "nearest_metro": {"id": "ballygunge_rail", "name": "Ballygunge Junction (Suburban)", "line": "suburban", "distance_m": 1311, "walk_min": 32}, "parking": [], "food": [{"id": "bosepukur_stalls", "distance_m": 803, "walk_min": 20}, {"id": "bhojohori_manna", "distance_m": 1517, "walk_min": 37}], "quiet_hours": {"mahalaya": [5, 6], "panchami": [5, 6], "shashthi": [5, 6], "saptami": [5, 6], "ashtami": [5, 6], "navami": [5, 6], "dashami": [5, 6]}, "peak_crowd": 88, "checkin_radius_m": 250, "best_slot_label": "5–9 pm", "kind": "pandals"}, "geometry": {"type": "Point", "coordinates": [88.384741, 22.519163]}}, {"type": "Feature", "properties": {"id": "bosepukur_talbagan", "name": "Bosepukur Talbagan", "name_bn": "বোসপুকুর তালবাগান", "zone": "south_gariahat", "geo_source": "curated", "tags": ["theme", "art"], "popularity": 4, "crowd_base": 4, "best_slot": "evening", "visit_min": 20, "est_year": null, "highlight": "Bosepukur's other award-winning theme puja.", "verified": false, "nearest_metro": {"id": "hemanta_mukhopadhyay", "name": "Hemanta Mukhopadhyay (Ruby)", "line": "orange", "distance_m": 1051, "walk_min": 26}, "parking": [], "food": [{"id": "bosepukur_stalls", "distance_m": 122, "walk_min": 3}], "quiet_hours": {"mahalaya": [5, 6], "panchami": [5, 6], "shashthi": [5, 6], "saptami": [5, 6], "ashtami": [5, 6], "navami": [5, 6], "dashami": [5, 6]}, "peak_crowd": 88, "checkin_radius_m": 350, "best_slot_label": "5–9 pm", "kind": "pandals"}, "geometry": {"type": "Point", "coordinates": [88.3912, 22.5146]}}, {"type": "Feature", "properties": {"id": "maddox_square", "name": "Maddox Square", "name_bn": "ম্যাডক্স স্কোয়ার", "zone": "south_lakemarket", "geo_source": "osm", "tags": ["traditional", "adda"], "popularity": 5, "crowd_base": 4, "best_slot": "night", "visit_min": 30, "est_year": null, "highlight": "Kolkata's favourite adda ground. A traditional idol and the city's best people-watching.", "verified": false, "nearest_metro": {"id": "jatin_das_park", "name": "Jatin Das Park", "line": "blue", "distance_m": 874, "walk_min": 21}, "parking": [{"id": "lake_mall", "distance_m": 1242, "walk_min": 30}, {"id": "forum_mall", "distance_m": 1443, "walk_min": 35}], "food": [{"id": "lake_market_stalls", "distance_m": 829, "walk_min": 20}, {"id": "vivekananda_park_phuchka", "distance_m": 878, "walk_min": 21}], "quiet_hours": {"mahalaya": [5, 6], "panchami": [5, 6], "shashthi": [5, 6], "saptami": [5, 6], "ashtami": [5, 6], "navami": [5, 6], "dashami": [5, 6]}, "peak_crowd": 88, "checkin_radius_m": 250, "best_slot_label": "9 pm–1 am", "kind": "pandals"}, "geometry": {"type": "Point", "coordinates": [88.354656, 22.526296]}}, {"type": "Feature", "properties": {"id": "samaj_sebi", "name": "Samaj Sebi Sangha", "name_bn": "সমাজসেবী সংঘ", "zone": "south_lakemarket", "geo_source": "osm", "tags": ["traditional", "art"], "popularity": 4, "crowd_base": 4, "best_slot": "afternoon", "visit_min": 20, "est_year": 1945, "highlight": "An elegant puja on Lake View Road with a long cultural legacy.", "verified": false, "nearest_metro": {"id": "kalighat", "name": "Kalighat", "line": "blue", "distance_m": 1070, "walk_min": 26}, "parking": [{"id": "lake_mall", "distance_m": 760, "walk_min": 19}, {"id": "south_city", "distance_m": 1576, "walk_min": 38}], "food": [{"id": "lake_market_stalls", "distance_m": 565, "walk_min": 14}, {"id": "vivekananda_park_phuchka", "distance_m": 613, "walk_min": 15}], "quiet_hours": {"mahalaya": [5, 6], "panchami": [5, 6], "shashthi": [5, 6], "saptami": [5, 6], "ashtami": [5, 6], "navami": [5, 6], "dashami": [5, 6]}, "peak_crowd": 88, "checkin_radius_m": 250, "best_slot_label": "12–5 pm", "kind": "pandals"}, "geometry": {"type": "Point", "coordinates": [88.355999, 22.514736]}}, {"type": "Feature", "properties": {"id": "shib_mandir", "name": "Shib Mandir Sarbojanin", "name_bn": "শিবমন্দির সার্বজনীন", "zone": "south_lakemarket", "geo_source": "curated", "tags": ["theme"], "popularity": 3, "crowd_base": 3, "best_slot": "afternoon", "visit_min": 15, "est_year": null, "highlight": "A compact theme puja near Lake Market.", "verified": false, "nearest_metro": {"id": "kalighat", "name": "Kalighat", "line": "blue", "distance_m": 949, "walk_min": 23}, "parking": [{"id": "lake_mall", "distance_m": 684, "walk_min": 17}], "food": [{"id": "lake_market_stalls", "distance_m": 177, "walk_min": 4}, {"id": "vivekananda_park_phuchka", "distance_m": 452, "walk_min": 11}], "quiet_hours": {"mahalaya": [5, 6], "panchami": [5, 6], "shashthi": [5, 6], "saptami": [5, 6], "ashtami": [5, 6], "navami": [5, 6], "dashami": [5, 6]}, "peak_crowd": 66, "checkin_radius_m": 350, "best_slot_label": "12–5 pm", "kind": "pandals"}, "geometry": {"type": "Point", "coordinates": [88.3546, 22.5196]}}, {"type": "Feature", "properties": {"id": "deshapriya_park", "name": "Deshapriya Park", "name_bn": "দেশপ্রিয় পার্ক", "zone": "south_lakemarket", "geo_source": "osm", "tags": ["traditional", "grand"], "popularity": 4, "crowd_base": 4, "best_slot": "evening", "visit_min": 20, "est_year": 1938, "highlight": "Once famous for the biggest Durga idol in the world, it now runs grand themes.", "verified": false, "nearest_metro": {"id": "kalighat", "name": "Kalighat", "line": "blue", "distance_m": 807, "walk_min": 20}, "parking": [{"id": "lake_mall", "distance_m": 525, "walk_min": 13}], "food": [{"id": "lake_market_stalls", "distance_m": 82, "walk_min": 2}, {"id": "vivekananda_park_phuchka", "distance_m": 576, "walk_min": 14}], "quiet_hours": {"mahalaya": [5, 6], "panchami": [5, 6], "shashthi": [5, 6], "saptami": [5, 6], "ashtami": [5, 6], "navami": [5, 6], "dashami": [5, 6]}, "peak_crowd": 88, "checkin_radius_m": 250, "best_slot_label": "5–9 pm", "kind": "pandals"}, "geometry": {"type": "Point", "coordinates": [88.353515, 22.518435]}}, {"type": "Feature", "properties": {"id": "tridhara", "name": "Tridhara Sammilani", "name_bn": "ত্রিধারা সম্মিলনী", "zone": "south_lakemarket", "geo_source": "osm", "tags": ["theme", "lights", "blockbuster"], "popularity": 5, "crowd_base": 5, "best_slot": "early_morning", "visit_min": 25, "est_year": null, "highlight": "A South Kolkata showstopper with dazzling theme and light work.", "verified": false, "nearest_metro": {"id": "kalighat", "name": "Kalighat", "line": "blue", "distance_m": 1021, "walk_min": 25}, "parking": [{"id": "lake_mall", "distance_m": 750, "walk_min": 18}], "food": [{"id": "lake_market_stalls", "distance_m": 250, "walk_min": 6}, {"id": "vivekananda_park_phuchka", "distance_m": 375, "walk_min": 9}], "quiet_hours": {"mahalaya": [5, 6], "panchami": [5, 6], "shashthi": [5, 6], "saptami": [5, 6], "ashtami": [5, 6], "navami": [5, 6], "dashami": [5, 6]}, "peak_crowd": 100, "checkin_radius_m": 250, "best_slot_label": "5–9 am", "kind": "pandals"}, "geometry": {"type": "Point", "coordinates": [88.355349, 22.519576]}}, {"type": "Feature", "properties": {"id": "66_pally", "name": "66 Pally", "name_bn": "৬৬ পল্লী", "zone": "south_lakemarket", "geo_source": "curated", "tags": ["theme", "art"], "popularity": 4, "crowd_base": 4, "best_slot": "evening", "visit_min": 20, "est_year": null, "highlight": "A Kalighat-side theme puja that often has a social message.", "verified": false, "nearest_metro": {"id": "kalighat", "name": "Kalighat", "line": "blue", "distance_m": 588, "walk_min": 14}, "parking": [{"id": "lake_mall", "distance_m": 293, "walk_min": 7}, {"id": "south_city", "distance_m": 1841, "walk_min": 45}], "food": [{"id": "lake_market_stalls", "distance_m": 482, "walk_min": 12}], "quiet_hours": {"mahalaya": [5, 6], "panchami": [5, 6], "shashthi": [5, 6], "saptami": [5, 6], "ashtami": [5, 6], "navami": [5, 6], "dashami": [5, 6]}, "peak_crowd": 88, "checkin_radius_m": 350, "best_slot_label": "5–9 pm", "kind": "pandals"}, "geometry": {"type": "Point", "coordinates": [88.3512, 22.515]}}, {"type": "Feature", "properties": {"id": "mudiali", "name": "Mudiali Club", "name_bn": "মুদিয়ালি ক্লাব", "zone": "south_lakemarket", "geo_source": "osm", "tags": ["theme", "eco"], "popularity": 4, "crowd_base": 3, "best_slot": "afternoon", "visit_min": 15, "est_year": null, "highlight": "Thoughtful themes with an eco slant near Tollygunge.", "verified": false, "nearest_metro": {"id": "rabindra_sarobar", "name": "Rabindra Sarobar", "line": "blue", "distance_m": 338, "walk_min": 8}, "parking": [{"id": "lake_mall", "distance_m": 750, "walk_min": 18}, {"id": "new_alipore_street", "distance_m": 1517, "walk_min": 37}], "food": [{"id": "lake_market_stalls", "distance_m": 1189, "walk_min": 29}, {"id": "suruchi_stalls", "distance_m": 1546, "walk_min": 38}], "quiet_hours": {"mahalaya": [5, 6], "panchami": [5, 6], "shashthi": [5, 6], "saptami": [5, 6], "ashtami": [5, 6], "navami": [5, 6], "dashami": [5, 6]}, "peak_crowd": 66, "checkin_radius_m": 250, "best_slot_label": "12–5 pm", "kind": "pandals"}, "geometry": {"type": "Point", "coordinates": [88.346626, 22.510075]}}, {"type": "Feature", "properties": {"id": "badamtala", "name": "Badamtala Ashar Sangha", "name_bn": "বাদামতলা আষাঢ় সংঘ", "zone": "south_lakemarket", "geo_source": "osm", "tags": ["theme", "art"], "popularity": 5, "crowd_base": 4, "best_slot": "evening", "visit_min": 25, "est_year": null, "highlight": "A theme favourite, usually built from unusual materials.", "verified": false, "nearest_metro": {"id": "kalighat", "name": "Kalighat", "line": "blue", "distance_m": 208, "walk_min": 5}, "parking": [{"id": "lake_mall", "distance_m": 507, "walk_min": 12}], "food": [{"id": "lake_market_stalls", "distance_m": 915, "walk_min": 22}, {"id": "vivekananda_park_phuchka", "distance_m": 1534, "walk_min": 37}], "quiet_hours": {"mahalaya": [5, 6], "panchami": [5, 6], "shashthi": [5, 6], "saptami": [5, 6], "ashtami": [5, 6], "navami": [5, 6], "dashami": [5, 6]}, "peak_crowd": 88, "checkin_radius_m": 250, "best_slot_label": "5–9 pm", "kind": "pandals"}, "geometry": {"type": "Point", "coordinates": [88.344165, 22.517927]}}, {"type": "Feature", "properties": {"id": "chetla_agrani", "name": "Chetla Agrani Club", "name_bn": "চেতলা অগ্রণী ক্লাব", "zone": "south_lakemarket", "geo_source": "osm", "tags": ["theme", "blockbuster"], "popularity": 5, "crowd_base": 5, "best_slot": "early_morning", "visit_min": 25, "est_year": null, "highlight": "Celebrity-studded inaugurations and blockbuster themes across Tolly Nullah.", "verified": false, "nearest_metro": {"id": "kalighat", "name": "Kalighat", "line": "blue", "distance_m": 897, "walk_min": 22}, "parking": [{"id": "lake_mall", "distance_m": 1204, "walk_min": 29}, {"id": "new_alipore_street", "distance_m": 1943, "walk_min": 47}], "food": [{"id": "lake_market_stalls", "distance_m": 1655, "walk_min": 40}], "quiet_hours": {"mahalaya": [5, 6], "panchami": [5, 6], "shashthi": [5, 6], "saptami": [5, 6], "ashtami": [5, 6], "navami": [5, 6], "dashami": [5, 6]}, "peak_crowd": 100, "checkin_radius_m": 250, "best_slot_label": "5–9 am", "kind": "pandals"}, "geometry": {"type": "Point", "coordinates": [88.337126, 22.516451]}}, {"type": "Feature", "properties": {"id": "suruchi_sangha", "name": "Suruchi Sangha", "name_bn": "সুরুচি সংঘ", "zone": "southwest", "geo_source": "osm", "tags": ["theme", "blockbuster", "state-art"], "popularity": 5, "crowd_base": 5, "best_slot": "early_morning", "visit_min": 30, "est_year": null, "highlight": "New Alipore's showpiece, famous for themes that bring in the art of a different Indian state each year.", "verified": false, "nearest_metro": {"id": "rabindra_sarobar", "name": "Rabindra Sarobar", "line": "blue", "distance_m": 1180, "walk_min": 29}, "parking": [{"id": "new_alipore_street", "distance_m": 1189, "walk_min": 29}, {"id": "lake_mall", "distance_m": 1717, "walk_min": 42}], "food": [{"id": "suruchi_stalls", "distance_m": 1541, "walk_min": 38}], "quiet_hours": {"mahalaya": [5, 6], "panchami": [5, 6], "shashthi": [5, 6], "saptami": [5, 6], "ashtami": [5, 6], "navami": [5, 6], "dashami": [5, 6]}, "peak_crowd": 100, "checkin_radius_m": 250, "best_slot_label": "5–9 am", "kind": "pandals"}, "geometry": {"type": "Point", "coordinates": [88.334183, 22.509097]}}, {"type": "Feature", "properties": {"id": "behala_notun_dal", "name": "Behala Notun Dal", "name_bn": "বেহালা নতুন দল", "zone": "southwest", "geo_source": "curated", "tags": ["theme", "art"], "popularity": 4, "crowd_base": 4, "best_slot": "evening", "visit_min": 20, "est_year": null, "highlight": "Art-led theme pujas with strong craft work.", "verified": false, "nearest_metro": {"id": "behala_bazar", "name": "Behala Bazar", "line": "purple", "distance_m": 96, "walk_min": 2}, "parking": [{"id": "behala_bazar_metro", "distance_m": 725, "walk_min": 18}], "food": [{"id": "behala_chowrasta", "distance_m": 164, "walk_min": 4}], "quiet_hours": {"mahalaya": [5, 6], "panchami": [5, 6], "shashthi": [5, 6], "saptami": [5, 6], "ashtami": [5, 6], "navami": [5, 6], "dashami": [5, 6]}, "peak_crowd": 88, "checkin_radius_m": 350, "best_slot_label": "5–9 pm", "kind": "pandals"}, "geometry": {"type": "Point", "coordinates": [88.3165, 22.4985]}}, {"type": "Feature", "properties": {"id": "behala_friends", "name": "Behala Friends", "name_bn": "বেহালা ফ্রেন্ডস", "zone": "southwest", "geo_source": "curated", "tags": ["theme"], "popularity": 4, "crowd_base": 4, "best_slot": "evening", "visit_min": 20, "est_year": null, "highlight": "A consistent theme puja near Behala Chowrasta.", "verified": false, "nearest_metro": {"id": "taratala", "name": "Taratala", "line": "purple", "distance_m": 504, "walk_min": 12}, "parking": [{"id": "behala_bazar_metro", "distance_m": 1288, "walk_min": 31}], "food": [{"id": "behala_chowrasta", "distance_m": 503, "walk_min": 12}], "quiet_hours": {"mahalaya": [5, 6], "panchami": [5, 6], "shashthi": [5, 6], "saptami": [5, 6], "ashtami": [5, 6], "navami": [5, 6], "dashami": [5, 6]}, "peak_crowd": 88, "checkin_radius_m": 350, "best_slot_label": "5–9 pm", "kind": "pandals"}, "geometry": {"type": "Point", "coordinates": [88.3185, 22.5035]}}, {"type": "Feature", "properties": {"id": "sahajatri", "name": "Behala Sahajatri", "name_bn": "বেহালা সহযাত্রী", "zone": "southwest", "geo_source": "curated", "tags": ["theme"], "popularity": 3, "crowd_base": 3, "best_slot": "afternoon", "visit_min": 15, "est_year": null, "highlight": "A smaller Behala theme puja with fewer queues.", "verified": false, "nearest_metro": {"id": "behala_bazar", "name": "Behala Bazar", "line": "purple", "distance_m": 634, "walk_min": 15}, "parking": [{"id": "behala_bazar_metro", "distance_m": 265, "walk_min": 6}], "food": [{"id": "behala_chowrasta", "distance_m": 685, "walk_min": 17}], "quiet_hours": {"mahalaya": [5, 6], "panchami": [5, 6], "shashthi": [5, 6], "saptami": [5, 6], "ashtami": [5, 6], "navami": [5, 6], "dashami": [5, 6]}, "peak_crowd": 66, "checkin_radius_m": 350, "best_slot_label": "12–5 pm", "kind": "pandals"}, "geometry": {"type": "Point", "coordinates": [88.315, 22.4935]}}, {"type": "Feature", "properties": {"id": "barisha_club", "name": "Barisha Club", "name_bn": "বড়িশা ক্লাব", "zone": "southwest", "geo_source": "osm", "tags": ["theme", "art"], "popularity": 4, "crowd_base": 4, "best_slot": "evening", "visit_min": 20, "est_year": null, "highlight": "Behala's southern anchor, known for detailed themes.", "verified": false, "nearest_metro": {"id": "behala_chowrasta", "name": "Behala Chowrasta", "line": "purple", "distance_m": 740, "walk_min": 18}, "parking": [{"id": "behala_bazar_metro", "distance_m": 1322, "walk_min": 32}], "food": [{"id": "sakherbazar_stalls", "distance_m": 108, "walk_min": 3}], "quiet_hours": {"mahalaya": [5, 6], "panchami": [5, 6], "shashthi": [5, 6], "saptami": [5, 6], "ashtami": [5, 6], "navami": [5, 6], "dashami": [5, 6]}, "peak_crowd": 88, "checkin_radius_m": 250, "best_slot_label": "5–9 pm", "kind": "pandals"}, "geometry": {"type": "Point", "coordinates": [88.312953, 22.480715]}}, {"type": "Feature", "properties": {"id": "fd_block", "name": "FD Block Salt Lake", "name_bn": "এফডি ব্লক, সল্টলেক", "zone": "salt_lake", "geo_source": "curated", "tags": ["traditional", "grand", "lights"], "popularity": 5, "crowd_base": 5, "best_slot": "evening", "visit_min": 25, "est_year": null, "highlight": "Salt Lake's biggest crowd puller, with a grand idol and a full-blown mela.", "verified": false, "nearest_metro": {"id": "city_centre", "name": "City Centre", "line": "green", "distance_m": 230, "walk_min": 6}, "parking": [{"id": "city_centre_parking", "distance_m": 252, "walk_min": 6}, {"id": "central_park_parking", "distance_m": 648, "walk_min": 16}], "food": [{"id": "city_centre_food", "distance_m": 191, "walk_min": 5}, {"id": "central_park_stalls", "distance_m": 783, "walk_min": 19}], "quiet_hours": {"mahalaya": [5, 6], "panchami": [5, 6], "shashthi": [5, 6], "saptami": [5, 6], "ashtami": [5, 6], "navami": [5, 6], "dashami": [5, 6]}, "peak_crowd": 100, "checkin_radius_m": 350, "best_slot_label": "5–9 pm", "kind": "pandals"}, "geometry": {"type": "Point", "coordinates": [88.41, 22.5878]}}, {"type": "Feature", "properties": {"id": "bj_block", "name": "BJ Block Salt Lake", "name_bn": "বিজে ব্লক, সল্টলেক", "zone": "salt_lake", "geo_source": "curated", "tags": ["theme"], "popularity": 4, "crowd_base": 4, "best_slot": "evening", "visit_min": 20, "est_year": null, "highlight": "A spacious theme pandal with an easy walk from Central Park.", "verified": false, "nearest_metro": {"id": "central_park", "name": "Central Park", "line": "green", "distance_m": 1054, "walk_min": 26}, "parking": [{"id": "central_park_parking", "distance_m": 556, "walk_min": 14}, {"id": "city_centre_parking", "distance_m": 1209, "walk_min": 29}], "food": [{"id": "central_park_stalls", "distance_m": 456, "walk_min": 11}], "quiet_hours": {"mahalaya": [5, 6], "panchami": [5, 6], "shashthi": [5, 6], "saptami": [5, 6], "ashtami": [5, 6], "navami": [5, 6], "dashami": [5, 6]}, "peak_crowd": 88, "checkin_radius_m": 350, "best_slot_label": "5–9 pm", "kind": "pandals"}, "geometry": {"type": "Point", "coordinates": [88.416, 22.581]}}, {"type": "Feature", "properties": {"id": "ae_block", "name": "AE Block Salt Lake", "name_bn": "এই ব্লক, সল্টলেক", "zone": "salt_lake", "geo_source": "curated", "tags": ["traditional"], "popularity": 3, "crowd_base": 3, "best_slot": "afternoon", "visit_min": 15, "est_year": null, "highlight": "A relaxed block puja that's good for families.", "verified": false, "nearest_metro": {"id": "central_park", "name": "Central Park", "line": "green", "distance_m": 276, "walk_min": 7}, "parking": [{"id": "city_centre_parking", "distance_m": 685, "walk_min": 17}, {"id": "central_park_parking", "distance_m": 715, "walk_min": 17}], "food": [{"id": "city_centre_food", "distance_m": 661, "walk_min": 16}], "quiet_hours": {"mahalaya": [5, 6], "panchami": [5, 6], "shashthi": [5, 6], "saptami": [5, 6], "ashtami": [5, 6], "navami": [5, 6], "dashami": [5, 6]}, "peak_crowd": 66, "checkin_radius_m": 350, "best_slot_label": "12–5 pm", "kind": "pandals"}, "geometry": {"type": "Point", "coordinates": [88.4135, 22.592]}}, {"type": "Feature", "properties": {"id": "sreebhumi", "name": "Sreebhumi Sporting Club", "name_bn": "শ্রীভূমি স্পোর্টিং ক্লাব", "zone": "lake_town_dumdum", "geo_source": "osm", "tags": ["theme", "blockbuster", "replica"], "popularity": 5, "crowd_base": 5, "best_slot": "late_night", "visit_min": 30, "est_year": null, "highlight": "Insta-famous replica pandals and huge gold jewellery on the idol. Lake Town gridlocks for hours.", "verified": false, "nearest_metro": {"id": "city_centre", "name": "City Centre", "line": "green", "distance_m": 1567, "walk_min": 38}, "parking": [{"id": "city_centre_parking", "distance_m": 1388, "walk_min": 34}, {"id": "diamond_plaza", "distance_m": 1969, "walk_min": 48}], "food": [{"id": "lake_town_stalls", "distance_m": 301, "walk_min": 7}], "quiet_hours": {"mahalaya": [5, 6], "panchami": [5, 6], "shashthi": [5, 6], "saptami": [5, 6], "ashtami": [5, 6], "navami": [5, 6], "dashami": [5, 6]}, "peak_crowd": 100, "checkin_radius_m": 250, "best_slot_label": "1–5 am", "kind": "pandals"}, "geometry": {"type": "Point", "coordinates": [88.40259, 22.600318]}}, {"type": "Feature", "properties": {"id": "lake_town_adhibasi", "name": "Lake Town Adhibasi Brinda", "name_bn": "লেক টাউন অধিবাসীবৃন্দ", "zone": "lake_town_dumdum", "geo_source": "curated", "tags": ["theme"], "popularity": 3, "crowd_base": 3, "best_slot": "evening", "visit_min": 15, "est_year": null, "highlight": "A short walk from Sreebhumi, and much calmer.", "verified": false, "nearest_metro": {"id": "belgachia", "name": "Belgachia", "line": "blue", "distance_m": 1866, "walk_min": 45}, "parking": [{"id": "diamond_plaza", "distance_m": 1471, "walk_min": 36}, {"id": "city_centre_parking", "distance_m": 1778, "walk_min": 43}], "food": [{"id": "lake_town_stalls", "distance_m": 227, "walk_min": 6}], "quiet_hours": {"mahalaya": [5, 6], "panchami": [5, 6], "shashthi": [5, 6], "saptami": [5, 6], "ashtami": [5, 6], "navami": [5, 6], "dashami": [5, 6]}, "peak_crowd": 66, "checkin_radius_m": 350, "best_slot_label": "5–9 pm", "kind": "pandals"}, "geometry": {"type": "Point", "coordinates": [88.4045, 22.6045]}}, {"type": "Feature", "properties": {"id": "dumdum_bharat_chakra", "name": "Dum Dum Park Bharat Chakra", "name_bn": "দমদম পার্ক ভারতচক্র", "zone": "lake_town_dumdum", "geo_source": "curated", "tags": ["theme", "art"], "popularity": 4, "crowd_base": 4, "best_slot": "evening", "visit_min": 20, "est_year": null, "highlight": "Part of the Dum Dum Park theme row, known for art installations.", "verified": false, "nearest_metro": {"id": "dumdum", "name": "Dum Dum", "line": "blue", "distance_m": 2185, "walk_min": 53}, "parking": [{"id": "diamond_plaza", "distance_m": 370, "walk_min": 9}], "food": [{"id": "dumdum_park_stalls", "distance_m": 122, "walk_min": 3}], "quiet_hours": {"mahalaya": [5, 6], "panchami": [5, 6], "shashthi": [5, 6], "saptami": [5, 6], "ashtami": [5, 6], "navami": [5, 6], "dashami": [5, 6]}, "peak_crowd": 88, "checkin_radius_m": 350, "best_slot_label": "5–9 pm", "kind": "pandals"}, "geometry": {"type": "Point", "coordinates": [88.414, 22.6185]}}, {"type": "Feature", "properties": {"id": "dumdum_tarun_sangha", "name": "Dum Dum Park Tarun Sangha", "name_bn": "দমদম পার্ক তরুণ সংঘ", "zone": "lake_town_dumdum", "geo_source": "curated", "tags": ["theme", "art"], "popularity": 4, "crowd_base": 4, "best_slot": "evening", "visit_min": 20, "est_year": null, "highlight": "Theme heavyweight on the Dum Dum Park strip.", "verified": false, "nearest_metro": {"id": "dumdum", "name": "Dum Dum", "line": "blue", "distance_m": 1999, "walk_min": 49}, "parking": [{"id": "diamond_plaza", "distance_m": 161, "walk_min": 4}], "food": [{"id": "dumdum_park_stalls", "distance_m": 191, "walk_min": 5}], "quiet_hours": {"mahalaya": [5, 6], "panchami": [5, 6], "shashthi": [5, 6], "saptami": [5, 6], "ashtami": [5, 6], "navami": [5, 6], "dashami": [5, 6]}, "peak_crowd": 88, "checkin_radius_m": 350, "best_slot_label": "5–9 pm", "kind": "pandals"}, "geometry": {"type": "Point", "coordinates": [88.4118, 22.6168]}}, {"type": "Feature", "properties": {"id": "dumdum_sarbojanin", "name": "Dum Dum Park Sarbojanin", "name_bn": "দমদম পার্ক সার্বজনীন", "zone": "lake_town_dumdum", "geo_source": "curated", "tags": ["traditional"], "popularity": 3, "crowd_base": 3, "best_slot": "afternoon", "visit_min": 15, "est_year": null, "highlight": "The traditional stop on the Dum Dum Park strip.", "verified": false, "nearest_metro": {"id": "dumdum", "name": "Dum Dum", "line": "blue", "distance_m": 2373, "walk_min": 58}, "parking": [{"id": "diamond_plaza", "distance_m": 281, "walk_min": 7}], "food": [{"id": "dumdum_park_stalls", "distance_m": 283, "walk_min": 7}], "quiet_hours": {"mahalaya": [5, 6], "panchami": [5, 6], "shashthi": [5, 6], "saptami": [5, 6], "ashtami": [5, 6], "navami": [5, 6], "dashami": [5, 6]}, "peak_crowd": 66, "checkin_radius_m": 350, "best_slot_label": "12–5 pm", "kind": "pandals"}, "geometry": {"type": "Point", "coordinates": [88.4152, 22.6155]}}, {"type": "Feature", "properties": {"id": "bhowanipore_75pally", "name": "Bhowanipore 75 Pally", "name_bn": "ভবানীপুর ৭৫ পল্লী", "zone": "south_lakemarket", "geo_source": "osm", "tags": ["theme", "art"], "popularity": 4, "crowd_base": 4, "best_slot": "evening", "visit_min": 20, "est_year": null, "highlight": "A Bhowanipore theme puja a short walk from the Jatin Das Park metro.", "verified": false, "nearest_metro": {"id": "netaji_bhavan", "name": "Netaji Bhavan", "line": "blue", "distance_m": 82, "walk_min": 2}, "parking": [{"id": "forum_mall", "distance_m": 966, "walk_min": 24}, {"id": "lake_mall", "distance_m": 1824, "walk_min": 44}], "food": [{"id": "balwant_singh", "distance_m": 592, "walk_min": 14}, {"id": "kewpies", "distance_m": 794, "walk_min": 19}], "quiet_hours": {"mahalaya": [5, 6], "panchami": [5, 6], "shashthi": [5, 6], "saptami": [5, 6], "ashtami": [5, 6], "navami": [5, 6], "dashami": [5, 6]}, "peak_crowd": 88, "checkin_radius_m": 250, "best_slot_label": "5–9 pm", "kind": "pandals"}, "geometry": {"type": "Point", "coordinates": [88.345442, 22.532596]}}, {"type": "Feature", "properties": {"id": "telengabagan", "name": "Telengabagan Sarbojanin", "name_bn": "তেলেঙ্গাবাগান সার্বজনীন", "zone": "north", "geo_source": "curated", "tags": ["theme", "art"], "popularity": 4, "crowd_base": 4, "best_slot": "evening", "visit_min": 20, "est_year": null, "highlight": "Award-winning theme work off the Belgachia–Ultadanga stretch.", "verified": false, "nearest_metro": {"id": "belgachia", "name": "Belgachia", "line": "blue", "distance_m": 277, "walk_min": 7}, "parking": [{"id": "hatibagan_paypark", "distance_m": 1705, "walk_min": 42}], "food": [{"id": "lake_town_stalls", "distance_m": 1563, "walk_min": 38}, {"id": "golbari", "distance_m": 1588, "walk_min": 39}], "quiet_hours": {"mahalaya": [5, 6], "panchami": [5, 6], "shashthi": [5, 6], "saptami": [5, 6], "ashtami": [5, 6], "navami": [5, 6], "dashami": [5, 6]}, "peak_crowd": 88, "checkin_radius_m": 350, "best_slot_label": "5–9 pm", "kind": "pandals"}, "geometry": {"type": "Point", "coordinates": [88.3878, 22.6038]}}, {"type": "Feature", "properties": {"id": "lalabagan_nabankur", "name": "Lalabagan Nabankur", "name_bn": "লালাবাগান নবাঙ্কুর", "zone": "north", "geo_source": "curated", "tags": ["theme"], "popularity": 3, "crowd_base": 3, "best_slot": "afternoon", "visit_min": 15, "est_year": null, "highlight": "A compact theme puja that fits well between Tala Prattoy and Shyambazar.", "verified": false, "nearest_metro": {"id": "shyambazar", "name": "Shyambazar", "line": "blue", "distance_m": 586, "walk_min": 14}, "parking": [{"id": "hatibagan_paypark", "distance_m": 1035, "walk_min": 25}], "food": [{"id": "golbari", "distance_m": 647, "walk_min": 16}, {"id": "chittaranjan", "distance_m": 747, "walk_min": 18}], "quiet_hours": {"mahalaya": [5, 6], "panchami": [5, 6], "shashthi": [5, 6], "saptami": [5, 6], "ashtami": [5, 6], "navami": [5, 6], "dashami": [5, 6]}, "peak_crowd": 66, "checkin_radius_m": 350, "best_slot_label": "12–5 pm", "kind": "pandals"}, "geometry": {"type": "Point", "coordinates": [88.3768, 22.6048]}}, {"type": "Feature", "properties": {"id": "rajdanga_naba_uday", "name": "Rajdanga Naba Uday Sangha", "name_bn": "রাজডাঙ্গা নব উদয় সংঘ", "zone": "south_gariahat", "geo_source": "curated", "tags": ["theme", "art"], "popularity": 4, "crowd_base": 4, "best_slot": "evening", "visit_min": 20, "est_year": null, "highlight": "Kasba's third theme heavyweight, right next to the two Bosepukur pujas.", "verified": false, "nearest_metro": {"id": "hemanta_mukhopadhyay", "name": "Hemanta Mukhopadhyay (Ruby)", "line": "orange", "distance_m": 911, "walk_min": 22}, "parking": [], "food": [{"id": "bosepukur_stalls", "distance_m": 483, "walk_min": 12}], "quiet_hours": {"mahalaya": [5, 6], "panchami": [5, 6], "shashthi": [5, 6], "saptami": [5, 6], "ashtami": [5, 6], "navami": [5, 6], "dashami": [5, 6]}, "peak_crowd": 88, "checkin_radius_m": 350, "best_slot_label": "5–9 pm", "kind": "pandals"}, "geometry": {"type": "Point", "coordinates": [88.3936, 22.511]}}, {"type": "Feature", "properties": {"id": "ajeya_sanghati", "name": "Behala Ajeya Sanghati", "name_bn": "অজেয় সংহতি", "zone": "southwest", "geo_source": "curated", "tags": ["theme"], "popularity": 4, "crowd_base": 4, "best_slot": "evening", "visit_min": 20, "est_year": null, "highlight": "A popular Behala theme puja near Barisha.", "verified": false, "nearest_metro": {"id": "behala_chowrasta", "name": "Behala Chowrasta", "line": "purple", "distance_m": 401, "walk_min": 10}, "parking": [{"id": "behala_bazar_metro", "distance_m": 821, "walk_min": 20}], "food": [{"id": "sakherbazar_stalls", "distance_m": 897, "walk_min": 22}, {"id": "behala_chowrasta", "distance_m": 1413, "walk_min": 34}], "quiet_hours": {"mahalaya": [5, 6], "panchami": [5, 6], "shashthi": [5, 6], "saptami": [5, 6], "ashtami": [5, 6], "navami": [5, 6], "dashami": [5, 6]}, "peak_crowd": 88, "checkin_radius_m": 350, "best_slot_label": "5–9 pm", "kind": "pandals"}, "geometry": {"type": "Point", "coordinates": [88.3098, 22.4888]}}, {"type": "Feature", "properties": {"id": "mitra_cafe", "name": "Mitra Cafe (Sovabazar)", "zone": "north", "geo_source": "curated", "type": "cabin", "dishes": ["Fish kabiraji", "Brain chop", "Mutton cutlet"], "veg": "nonveg", "price": 2, "hours": "12:00-23:00", "note": "A century-old cabin. The kabiraji is the reason you queue.", "verified": false, "checkin_radius_m": 350, "near_pandals": ["kumartuli_sarbojanin", "ahiritola_jubak", "sovabazar_rajbari", "kashi_bose_lane", "nalin_sarkar", "jagat_mukherjee", "simla_byayam"], "kind": "food"}, "geometry": {"type": "Point", "coordinates": [88.366, 22.5945]}}, {"type": "Feature", "properties": {"id": "girish_nakur", "name": "Girish Chandra Dey & Nakur Chandra Nandy", "zone": "north", "geo_source": "curated", "type": "sweets", "dishes": ["Nolen gur sandesh", "Jolbhora", "Monohara"], "veg": "veg", "price": 1, "hours": "08:00-21:00", "note": "Sandesh royalty since 1844. Sells out by evening.", "verified": false, "checkin_radius_m": 350, "near_pandals": ["kumartuli_sarbojanin", "ahiritola", "ahiritola_jubak", "sovabazar_rajbari", "kashi_bose_lane", "simla_byayam"], "kind": "food"}, "geometry": {"type": "Point", "coordinates": [88.3642, 22.5928]}}, {"type": "Feature", "properties": {"id": "chittaranjan", "name": "Chittaranjan Mistanna Bhandar", "zone": "north", "geo_source": "curated", "type": "sweets", "dishes": ["Rosogolla", "Amritakumbha", "Mishti doi"], "veg": "veg", "price": 1, "hours": "07:00-22:00", "note": "The Shyambazar sweet stop.", "verified": false, "checkin_radius_m": 350, "near_pandals": ["bagbazar", "sovabazar_rajbari", "nalin_sarkar", "hatibagan", "jagat_mukherjee", "lalabagan_nabankur"], "kind": "food"}, "geometry": {"type": "Point", "coordinates": [88.3716, 22.6001]}}, {"type": "Feature", "properties": {"id": "golbari", "name": "Golbari", "zone": "north", "geo_source": "curated", "type": "restaurant", "dishes": ["Kosha mangsho", "Paratha"], "veg": "nonveg", "price": 2, "hours": "12:00-23:30", "note": "The kosha mangsho at Shyambazar five-point crossing is legendary.", "verified": false, "checkin_radius_m": 350, "near_pandals": ["sovabazar_rajbari", "nalin_sarkar", "hatibagan", "jagat_mukherjee", "lalabagan_nabankur"], "kind": "food"}, "geometry": {"type": "Point", "coordinates": [88.3728, 22.6003]}}, {"type": "Feature", "properties": {"id": "allens_kitchen", "name": "Allen's Kitchen", "zone": "north", "geo_source": "curated", "type": "cabin", "dishes": ["Prawn cutlet", "Chicken stew"], "veg": "nonveg", "price": 2, "hours": "16:00-21:00", "note": "Tiny 1900s cabin. Cutlets are fried in pure ghee.", "verified": false, "checkin_radius_m": 350, "near_pandals": ["kumartuli_sarbojanin", "ahiritola", "ahiritola_jubak", "sovabazar_rajbari", "kashi_bose_lane", "simla_byayam"], "kind": "food"}, "geometry": {"type": "Point", "coordinates": [88.3648, 22.5938]}}, {"type": "Feature", "properties": {"id": "royal_indian", "name": "Royal Indian Hotel", "zone": "central", "geo_source": "curated", "type": "restaurant", "dishes": ["Mutton biryani", "Chicken chaap", "Rezala"], "veg": "nonveg", "price": 2, "hours": "11:00-23:00", "note": "Chitpur's Mughlai institution since 1905.", "verified": false, "checkin_radius_m": 350, "near_pandals": ["md_ali_park"], "kind": "food"}, "geometry": {"type": "Point", "coordinates": [88.3556, 22.5793]}}, {"type": "Feature", "properties": {"id": "putiram", "name": "Putiram", "zone": "central", "geo_source": "curated", "type": "sweets", "dishes": ["Kochuri", "Jilipi", "Mohanbhog"], "veg": "veg", "price": 1, "hours": "07:00-21:00", "note": "The College Street breakfast: kochuri and jilipi.", "verified": false, "checkin_radius_m": 350, "near_pandals": ["md_ali_park", "college_square"], "kind": "food"}, "geometry": {"type": "Point", "coordinates": [88.3628, 22.5745]}}, {"type": "Feature", "properties": {"id": "paramount", "name": "Paramount", "zone": "central", "geo_source": "curated", "type": "drinks", "dishes": ["Daab sherbet", "Green mango sherbet"], "veg": "veg", "price": 1, "hours": "11:00-21:00", "note": "Sherbet parlour since 1918, on the corner of College Square.", "verified": false, "checkin_radius_m": 350, "near_pandals": ["md_ali_park", "college_square"], "kind": "food"}, "geometry": {"type": "Point", "coordinates": [88.3644, 22.5753]}}, {"type": "Feature", "properties": {"id": "coffee_house", "name": "Indian Coffee House", "zone": "central", "geo_source": "osm", "type": "cabin", "dishes": ["Infusion", "Chicken kabiraji", "Mutton cutlet"], "veg": "both", "price": 1, "hours": "09:00-21:00", "note": "Adda under high ceilings on College Street.", "verified": false, "checkin_radius_m": 250, "near_pandals": ["md_ali_park", "college_square"], "kind": "food"}, "geometry": {"type": "Point", "coordinates": [88.363891, 22.576097]}}, {"type": "Feature", "properties": {"id": "bhim_nag", "name": "Bhim Chandra Nag", "zone": "central", "geo_source": "curated", "type": "sweets", "dishes": ["Ledikeni", "Sandesh"], "veg": "veg", "price": 1, "hours": "08:00-21:30", "note": "Home of the ledikeni, a short walk from Santosh Mitra Square.", "verified": false, "checkin_radius_m": 350, "near_pandals": ["santosh_mitra"], "kind": "food"}, "geometry": {"type": "Point", "coordinates": [88.3605, 22.568]}}, {"type": "Feature", "properties": {"id": "aminia", "name": "Aminia (New Market)", "zone": "central", "geo_source": "curated", "type": "restaurant", "dishes": ["Mutton biryani", "Chaap", "Firni"], "veg": "nonveg", "price": 2, "hours": "11:00-23:30", "note": "A classic biryani pit stop in the New Market area.", "verified": false, "checkin_radius_m": 350, "near_pandals": [], "kind": "food"}, "geometry": {"type": "Point", "coordinates": [88.3521, 22.56]}}, {"type": "Feature", "properties": {"id": "nizams", "name": "Nizam's", "zone": "central", "geo_source": "osm", "type": "street", "dishes": ["Kathi roll", "Beef roll", "Chicken roll"], "veg": "nonveg", "price": 1, "hours": "12:00-23:30", "note": "The kathi roll is said to have been born here.", "verified": false, "checkin_radius_m": 250, "near_pandals": [], "kind": "food"}, "geometry": {"type": "Point", "coordinates": [88.353538, 22.562144]}}, {"type": "Feature", "properties": {"id": "vivekananda_park_phuchka", "name": "Vivekananda Park Phuchka", "zone": "south_lakemarket", "geo_source": "curated", "type": "street", "dishes": ["Phuchka", "Churmur", "Dahi phuchka"], "veg": "veg", "price": 1, "hours": "15:00-23:00", "note": "Often called Kolkata's most famous phuchka. Ask for the tok-jhal-mishti.", "verified": false, "checkin_radius_m": 350, "near_pandals": ["ekdalia", "singhi_park", "ballygunge_cultural", "hindustan_park", "samaj_sebi", "shib_mandir", "deshapriya_park", "tridhara"], "kind": "food"}, "geometry": {"type": "Point", "coordinates": [88.359, 22.5195]}}, {"type": "Feature", "properties": {"id": "lake_market_stalls", "name": "Lake Market Telebhaja Stalls", "zone": "south_lakemarket", "geo_source": "curated", "type": "street", "dishes": ["Beguni", "Alur chop", "Egg roll"], "veg": "both", "price": 1, "hours": "16:00-01:00", "note": "Late-night fuel between Tridhara and 66 Pally.", "verified": false, "checkin_radius_m": 350, "near_pandals": ["ballygunge_cultural", "samaj_sebi", "shib_mandir", "deshapriya_park", "tridhara", "66_pally"], "kind": "food"}, "geometry": {"type": "Point", "coordinates": [88.353, 22.519]}}, {"type": "Feature", "properties": {"id": "balwant_singh", "name": "Balwant Singh's Eating House", "zone": "south_lakemarket", "geo_source": "osm", "type": "cabin", "dishes": ["Doodh cha", "Tadka", "Paratha"], "veg": "veg", "price": 1, "hours": "06:00-23:00", "note": "Bhowanipore's milky tea and dhaba-style tadka.", "verified": false, "checkin_radius_m": 250, "near_pandals": ["bhowanipore_75pally"], "kind": "food"}, "geometry": {"type": "Point", "coordinates": [88.344129, 22.537783]}}, {"type": "Feature", "properties": {"id": "kewpies", "name": "Kewpie's Kitchen", "zone": "south_lakemarket", "geo_source": "curated", "type": "restaurant", "dishes": ["Bengali thali", "Daab chingri", "Bhetki paturi"], "veg": "both", "price": 3, "hours": "12:30-22:30", "note": "A home-style Bengali thali close to Maddox Square.", "verified": false, "checkin_radius_m": 350, "near_pandals": ["bhowanipore_75pally"], "kind": "food"}, "geometry": {"type": "Point", "coordinates": [88.3505, 22.538]}}, {"type": "Feature", "properties": {"id": "gariahat_stalls", "name": "Gariahat Mor Street Food", "zone": "south_gariahat", "geo_source": "curated", "type": "street", "dishes": ["Egg chicken roll", "Chowmein", "Momo"], "veg": "both", "price": 1, "hours": "15:00-01:00", "note": "Cheap and quick, right on the Ekdalia–Singhi Park loop.", "verified": false, "checkin_radius_m": 350, "near_pandals": ["ekdalia", "singhi_park", "hindustan_park"], "kind": "food"}, "geometry": {"type": "Point", "coordinates": [88.3665, 22.5185]}}, {"type": "Feature", "properties": {"id": "bhojohori_manna", "name": "Bhojohori Manna (Ekdalia)", "zone": "south_gariahat", "geo_source": "curated", "type": "restaurant", "dishes": ["Bhetki paturi", "Kosha mangsho", "Chingri malaikari"], "veg": "both", "price": 2, "hours": "12:00-22:30", "note": "A Bengali chain started here. Book ahead during puja.", "verified": false, "checkin_radius_m": 350, "near_pandals": ["ekdalia"], "kind": "food"}, "geometry": {"type": "Point", "coordinates": [88.3702, 22.5168]}}, {"type": "Feature", "properties": {"id": "ballygunge_place", "name": "6 Ballygunge Place", "zone": "south_gariahat", "geo_source": "osm", "type": "restaurant", "dishes": ["Daab chingri", "Bengali thali"], "veg": "both", "price": 3, "hours": "12:00-23:00", "note": "An upscale Bengali spread in a heritage house.", "verified": false, "checkin_radius_m": 250, "near_pandals": ["ekdalia"], "kind": "food"}, "geometry": {"type": "Point", "coordinates": [88.368637, 22.527799]}}, {"type": "Feature", "properties": {"id": "arsalan", "name": "Arsalan (Park Circus)", "zone": "south_gariahat", "geo_source": "osm", "type": "restaurant", "dishes": ["Mutton biryani", "Chicken chaap"], "veg": "nonveg", "price": 2, "hours": "12:00-00:00", "note": "A biryani heavyweight on the way north from Gariahat.", "verified": false, "checkin_radius_m": 250, "near_pandals": [], "kind": "food"}, "geometry": {"type": "Point", "coordinates": [88.365952, 22.543872]}}, {"type": "Feature", "properties": {"id": "suruchi_stalls", "name": "New Alipore Puja Stalls", "zone": "southwest", "geo_source": "curated", "type": "street", "dishes": ["Fish fry", "Egg devil", "Phuchka"], "veg": "both", "price": 1, "hours": "16:00-02:00", "note": "The pop-up food row that grows around Suruchi Sangha.", "verified": false, "checkin_radius_m": 350, "near_pandals": [], "kind": "food"}, "geometry": {"type": "Point", "coordinates": [88.3415, 22.497]}}, {"type": "Feature", "properties": {"id": "behala_chowrasta", "name": "Behala Chowrasta Stalls", "zone": "southwest", "geo_source": "curated", "type": "street", "dishes": ["Moghlai paratha", "Rolls", "Mishti"], "veg": "both", "price": 1, "hours": "15:00-00:00", "note": "Street classics at the Behala crossing.", "verified": false, "checkin_radius_m": 350, "near_pandals": ["behala_notun_dal", "behala_friends", "sahajatri"], "kind": "food"}, "geometry": {"type": "Point", "coordinates": [88.318, 22.499]}}, {"type": "Feature", "properties": {"id": "city_centre_food", "name": "City Centre 1 Food Court", "zone": "salt_lake", "geo_source": "curated", "type": "restaurant", "dishes": ["Biryani", "Chinese", "Desserts"], "veg": "both", "price": 2, "hours": "11:00-22:00", "note": "Air-conditioned toilets and seats, which is gold during pujo.", "verified": false, "checkin_radius_m": 350, "near_pandals": ["fd_block", "ae_block"], "kind": "food"}, "geometry": {"type": "Point", "coordinates": [88.4083, 22.5885]}}, {"type": "Feature", "properties": {"id": "central_park_stalls", "name": "Central Park Mela Stalls", "zone": "salt_lake", "geo_source": "curated", "type": "street", "dishes": ["Fish fry", "Kebab", "Ice cream"], "veg": "both", "price": 1, "hours": "16:00-23:00", "note": "Mela food near BJ Block.", "verified": false, "checkin_radius_m": 350, "near_pandals": ["fd_block", "bj_block"], "kind": "food"}, "geometry": {"type": "Point", "coordinates": [88.417, 22.585]}}, {"type": "Feature", "properties": {"id": "lake_town_stalls", "name": "Lake Town Footbridge Stalls", "zone": "lake_town_dumdum", "geo_source": "curated", "type": "street", "dishes": ["Phuchka", "Chowmein", "Rolls"], "veg": "both", "price": 1, "hours": "15:00-02:00", "note": "Pop-up stalls along the Sreebhumi queue.", "verified": false, "checkin_radius_m": 350, "near_pandals": ["sreebhumi", "lake_town_adhibasi"], "kind": "food"}, "geometry": {"type": "Point", "coordinates": [88.403, 22.603]}}, {"type": "Feature", "properties": {"id": "dumdum_park_stalls", "name": "Dum Dum Park Puja Stalls", "zone": "lake_town_dumdum", "geo_source": "curated", "type": "street", "dishes": ["Fish fry", "Mughlai paratha"], "veg": "both", "price": 1, "hours": "16:00-01:00", "note": "Food row between the Dum Dum Park pandals.", "verified": false, "checkin_radius_m": 350, "near_pandals": ["dumdum_bharat_chakra", "dumdum_tarun_sangha", "dumdum_sarbojanin"], "kind": "food"}, "geometry": {"type": "Point", "coordinates": [88.4135, 22.6175]}}, {"type": "Feature", "properties": {"id": "bosepukur_stalls", "name": "Bosepukur Puja Food Row", "zone": "south_gariahat", "geo_source": "curated", "type": "street", "dishes": ["Phuchka", "Fish fry", "Chicken pakora"], "veg": "both", "price": 1, "hours": "16:00-01:00", "note": "Pop-up stalls between the two Bosepukur pandals.", "verified": false, "checkin_radius_m": 350, "near_pandals": ["bosepukur_talbagan", "rajdanga_naba_uday"], "kind": "food"}, "geometry": {"type": "Point", "coordinates": [88.3902, 22.514]}}, {"type": "Feature", "properties": {"id": "sakherbazar_stalls", "name": "Sakherbazar Puja Food Stalls", "zone": "southwest", "geo_source": "curated", "type": "street", "dishes": ["Fish fry", "Egg roll", "Phuchka"], "veg": "both", "price": 1, "hours": "16:00-01:00", "note": "The food row on the Diamond Harbour Road side of Barisha Club.", "verified": false, "checkin_radius_m": 350, "near_pandals": ["barisha_club"], "kind": "food"}, "geometry": {"type": "Point", "coordinates": [88.313553, 22.481515]}}, {"type": "Feature", "properties": {"id": "noapara_metro", "name": "Noapara Metro (Park & Ride)", "zone": "north", "geo_source": "curated", "kind": "parking", "capacity": "medium", "rate_hint": "₹20–50", "note": "Leave the car here and ride the Blue Line to Shyambazar or Sovabazar.", "verified": false}, "geometry": {"type": "Point", "coordinates": [88.394, 22.64]}}, {"type": "Feature", "properties": {"id": "dumdum_metro", "name": "Dum Dum Metro Area (Park & Ride)", "zone": "lake_town_dumdum", "geo_source": "curated", "kind": "parking", "capacity": "small", "rate_hint": "₹20–50", "note": "Ride the metro south, or take an auto to Dum Dum Park.", "verified": false}, "geometry": {"type": "Point", "coordinates": [88.3915, 22.6215]}}, {"type": "Feature", "properties": {"id": "hatibagan_paypark", "name": "Hatibagan Pay & Park (Bidhan Sarani)", "zone": "north", "geo_source": "curated", "kind": "parking", "capacity": "small", "rate_hint": "₹20/hr", "note": "Usually closed after 4 pm on the main puja days. Check the KP advisory.", "verified": false}, "geometry": {"type": "Point", "coordinates": [88.3735, 22.596]}}, {"type": "Feature", "properties": {"id": "sealdah_station", "name": "Sealdah Station Parking", "zone": "central", "geo_source": "curated", "kind": "parking", "capacity": "large", "rate_hint": "₹30–60", "note": "The best car base for Santosh Mitra and Sealdah RAC.", "verified": false}, "geometry": {"type": "Point", "coordinates": [88.3705, 22.5672]}}, {"type": "Feature", "properties": {"id": "new_market_mlcp", "name": "New Market Multi-level Parking", "zone": "central", "geo_source": "curated", "kind": "parking", "capacity": "large", "rate_hint": "₹30/hr", "note": "Walk or take the metro north from Esplanade.", "verified": false}, "geometry": {"type": "Point", "coordinates": [88.3515, 22.5598]}}, {"type": "Feature", "properties": {"id": "lake_mall", "name": "Lake Mall (Rashbehari)", "zone": "south_lakemarket", "geo_source": "osm", "kind": "parking", "capacity": "medium", "rate_hint": "₹40–60/hr", "note": "Right in the Tridhara–Deshapriya–66 Pally cluster. Fills by 6 pm.", "verified": false}, "geometry": {"type": "Point", "coordinates": [88.348851, 22.516501]}}, {"type": "Feature", "properties": {"id": "forum_mall", "name": "Forum Mall (Elgin Road)", "zone": "south_lakemarket", "geo_source": "curated", "kind": "parking", "capacity": "medium", "rate_hint": "₹40–60/hr", "note": "A good base for Maddox Square and Bhowanipore.", "verified": false}, "geometry": {"type": "Point", "coordinates": [88.3518, 22.539]}}, {"type": "Feature", "properties": {"id": "quest_mall", "name": "Quest Mall (Ballygunge Circular Rd)", "zone": "south_gariahat", "geo_source": "osm", "kind": "parking", "capacity": "large", "rate_hint": "₹50/hr", "note": "Take a cab or the metro south to the Gariahat cluster.", "verified": false}, "geometry": {"type": "Point", "coordinates": [88.365656, 22.539027]}}, {"type": "Feature", "properties": {"id": "south_city", "name": "South City Mall", "zone": "south_gariahat", "geo_source": "osm", "kind": "parking", "capacity": "large", "rate_hint": "₹50/hr", "note": "The base for Jodhpur Park and Babubagan. A cab to Ekdalia takes about 10 minutes.", "verified": false}, "geometry": {"type": "Point", "coordinates": [88.36171, 22.501584]}}, {"type": "Feature", "properties": {"id": "behala_bazar_metro", "name": "Behala Bazar Metro (Purple Line)", "zone": "southwest", "geo_source": "curated", "kind": "parking", "capacity": "small", "rate_hint": "₹20–40", "note": "Close to Behala Notun Dal and Sahajatri.", "verified": false}, "geometry": {"type": "Point", "coordinates": [88.317, 22.492]}}, {"type": "Feature", "properties": {"id": "new_alipore_street", "name": "New Alipore Police-marked Street Parking", "zone": "southwest", "geo_source": "curated", "kind": "parking", "capacity": "medium", "rate_hint": "₹30–50", "note": "Follow the cones. Suruchi Sangha is a 5-minute walk.", "verified": false}, "geometry": {"type": "Point", "coordinates": [88.338, 22.499]}}, {"type": "Feature", "properties": {"id": "city_centre_parking", "name": "City Centre 1 Parking", "zone": "salt_lake", "geo_source": "curated", "kind": "parking", "capacity": "large", "rate_hint": "₹40/hr", "note": "Walk to FD Block, or take a short auto to BJ Block.", "verified": false}, "geometry": {"type": "Point", "coordinates": [88.4078, 22.5888]}}, {"type": "Feature", "properties": {"id": "central_park_parking", "name": "Central Park Salt Lake (Puja Lot)", "zone": "salt_lake", "geo_source": "curated", "kind": "parking", "capacity": "medium", "rate_hint": "₹30–50", "note": "A temporary lot that usually opens on the puja days.", "verified": false}, "geometry": {"type": "Point", "coordinates": [88.416, 22.586]}}, {"type": "Feature", "properties": {"id": "diamond_plaza", "name": "Diamond Plaza (Jessore Road)", "zone": "lake_town_dumdum", "geo_source": "osm", "kind": "parking", "capacity": "large", "rate_hint": "₹40/hr", "note": "Leave the car here. VIP Road near Sreebhumi stays jammed for hours.", "verified": false}, "geometry": {"type": "Point", "coordinates": [88.412466, 22.615493]}}, {"type": "Feature", "properties": {"id": "noapara", "name": "Noapara", "line": "blue", "geo_source": "osm", "kind": "transit"}, "geometry": {"type": "Point", "coordinates": [88.394134, 22.639842]}}, {"type": "Feature", "properties": {"id": "dumdum", "name": "Dum Dum", "line": "blue", "geo_source": "osm", "kind": "transit"}, "geometry": {"type": "Point", "coordinates": [88.392897, 22.621114]}}, {"type": "Feature", "properties": {"id": "belgachia", "name": "Belgachia", "line": "blue", "geo_source": "osm", "kind": "transit"}, "geometry": {"type": "Point", "coordinates": [88.386391, 22.605924]}}, {"type": "Feature", "properties": {"id": "shyambazar", "name": "Shyambazar", "line": "blue", "geo_source": "osm", "kind": "transit"}, "geometry": {"type": "Point", "coordinates": [88.372497, 22.601335]}}, {"type": "Feature", "properties": {"id": "sovabazar", "name": "Sovabazar Sutanuti", "line": "blue", "geo_source": "osm", "kind": "transit"}, "geometry": {"type": "Point", "coordinates": [88.3652, 22.595881]}}, {"type": "Feature", "properties": {"id": "girish_park", "name": "Girish Park", "line": "blue", "geo_source": "osm", "kind": "transit"}, "geometry": {"type": "Point", "coordinates": [88.362942, 22.587145]}}, {"type": "Feature", "properties": {"id": "mg_road", "name": "Mahatma Gandhi Road", "line": "blue", "geo_source": "osm", "kind": "transit"}, "geometry": {"type": "Point", "coordinates": [88.361327, 22.580921]}}, {"type": "Feature", "properties": {"id": "central", "name": "Central", "line": "blue", "geo_source": "osm", "kind": "transit"}, "geometry": {"type": "Point", "coordinates": [88.358743, 22.572486]}}, {"type": "Feature", "properties": {"id": "esplanade", "name": "Esplanade", "line": "blue", "geo_source": "osm", "kind": "transit"}, "geometry": {"type": "Point", "coordinates": [88.35121, 22.563614]}}, {"type": "Feature", "properties": {"id": "rabindra_sadan", "name": "Rabindra Sadan", "line": "blue", "geo_source": "osm", "kind": "transit"}, "geometry": {"type": "Point", "coordinates": [88.347349, 22.54149]}}, {"type": "Feature", "properties": {"id": "netaji_bhavan", "name": "Netaji Bhavan", "line": "blue", "geo_source": "osm", "kind": "transit"}, "geometry": {"type": "Point", "coordinates": [88.345927, 22.533182]}}, {"type": "Feature", "properties": {"id": "jatin_das_park", "name": "Jatin Das Park", "line": "blue", "geo_source": "osm", "kind": "transit"}, "geometry": {"type": "Point", "coordinates": [88.346473, 22.524154]}}, {"type": "Feature", "properties": {"id": "kalighat", "name": "Kalighat", "line": "blue", "geo_source": "osm", "kind": "transit"}, "geometry": {"type": "Point", "coordinates": [88.345845, 22.516875]}}, {"type": "Feature", "properties": {"id": "rabindra_sarobar", "name": "Rabindra Sarobar", "line": "blue", "geo_source": "osm", "kind": "transit"}, "geometry": {"type": "Point", "coordinates": [88.345494, 22.507222]}}, {"type": "Feature", "properties": {"id": "tollygunge", "name": "Mahanayak Uttam Kumar", "line": "blue", "geo_source": "osm", "kind": "transit"}, "geometry": {"type": "Point", "coordinates": [88.345088, 22.494769]}}, {"type": "Feature", "properties": {"id": "sealdah", "name": "Sealdah", "line": "green", "geo_source": "osm", "kind": "transit"}, "geometry": {"type": "Point", "coordinates": [88.371105, 22.567966]}}, {"type": "Feature", "properties": {"id": "city_centre", "name": "City Centre", "line": "green", "geo_source": "osm", "kind": "transit"}, "geometry": {"type": "Point", "coordinates": [88.407891, 22.587099]}}, {"type": "Feature", "properties": {"id": "central_park", "name": "Central Park", "line": "green", "geo_source": "osm", "kind": "transit"}, "geometry": {"type": "Point", "coordinates": [88.415625, 22.590474]}}, {"type": "Feature", "properties": {"id": "bengal_chemical", "name": "Bengal Chemical", "line": "green", "geo_source": "osm", "kind": "transit"}, "geometry": {"type": "Point", "coordinates": [88.401296, 22.580067]}}, {"type": "Feature", "properties": {"id": "taratala", "name": "Taratala", "line": "purple", "geo_source": "osm", "kind": "transit"}, "geometry": {"type": "Point", "coordinates": [88.320384, 22.507686]}}, {"type": "Feature", "properties": {"id": "behala_bazar", "name": "Behala Bazar", "line": "purple", "geo_source": "osm", "kind": "transit"}, "geometry": {"type": "Point", "coordinates": [88.317387, 22.498759]}}, {"type": "Feature", "properties": {"id": "behala_chowrasta", "name": "Behala Chowrasta", "line": "purple", "geo_source": "osm", "kind": "transit"}, "geometry": {"type": "Point", "coordinates": [88.313379, 22.487355]}}, {"type": "Feature", "properties": {"id": "hemanta_mukhopadhyay", "name": "Hemanta Mukhopadhyay (Ruby)", "line": "orange", "geo_source": "osm", "kind": "transit"}, "geometry": {"type": "Point", "coordinates": [88.401428, 22.514851]}}, {"type": "Feature", "properties": {"id": "ballygunge_rail", "name": "Ballygunge Junction (Suburban)", "line": "suburban", "geo_source": "osm", "kind": "transit"}, "geometry": {"type": "Point", "coordinates": [88.371978, 22.519341]}}]}